[{"OBJECT_NAME":"OBJECT L","OBJECT_ID":"2023-085L","EPOCH":"2026-03-09T23:02:21.999840","MEAN_MOTION":15.29079976,"ECCENTRICITY":0.0005428,"INCLINATION":97.486,"RA_OF_ASC_NODE":178.8598,"ARG_OF_PERICENTER":50.8528,"MEAN_ANOMALY":309.3193,"EPHEMERIS_TYPE":0,"CLASSIFICATION_TYPE":"U","NORAD_CAT_ID":57014,"ELEMENT_SET_NO":999,"REV_AT_EPOCH":15144,"BSTAR":0.00063462603,"MEAN_MOTION_DOT":0.00017871,"MEAN_MOTION_DDOT":0},{"OBJECT_NAME":"STARLINK-32948","OBJECT_ID":"2025-039V","EPOCH":"2026-03-09T05:01:26.709024","MEAN_MOTION":15.27588938,"ECCENTRICITY":2.602e-5,"INCLINATION":43.0006,"RA_OF_ASC_NODE":15.4642,"ARG_OF_PERICENTER":296.9102,"MEAN_ANOMALY":63.1723,"EPHEMERIS_TYPE":0,"CLASSIFICATION_TYPE":"U","NORAD_CAT_ID":63123,"ELEMENT_SET_NO":999,"REV_AT_EPOCH":5799,"BSTAR":0.0012422467,"MEAN_MOTION_DOT":0.00034089,"MEAN_MOTION_DDOT":0}]
